STARLINK-30069          
1 56834U 23079M   26067.48212902 -.00002416  00000+0 -80472-4 0  9995
2 56834  42.9986 110.4464 0000469 272.6695  87.4103 15.26726881152740
STARLINK-31042          
1 58739U 24005M   26068.74334738  .00002028  00000+0  85255-4 0  9994
2 58739  43.0003 219.2871 0000723 275.9861  84.0908 15.26742080120450
